GLOBALSTAR M023         
1 25621U 99004A   24128.53782461 -.00000074  00000+0  16456-3 0  9997
2 25621  52.0094 208.6089 0009834 310.8490 152.9906 12.62452230164493
GLOBALSTAR M040         
1 25622U 99004B   24128.49397411 -.00000041  00000+0  34969-3 0  9993
2 25622  51.9906 212.2990 0000837 193.6905 178.9042 12.61973016164036
GLOBALSTAR M036         
1 25623U 99004C   24128.61585847 -.00000114  00000+0 -45020-3 0  9992
2 25623  51.9959 229.2876 0010822 353.6432 112.9288 11.86565733130812
GLOBALSTAR M038         
1 25624U 99004D   24128.79885615 -.00000043  00000+0  42773-3 0  9990
2 25624  51.9947 159.0152 0001795 286.0594 245.0021 12.32498808152383
GLOBALSTAR M022         
1 25649U 99012A   24128.75642740 -.00000062  00000+0  30325-3 0  9993
2 25649  52.0048 313.0305 0003324  89.3157 283.8121 12.02481772127602
GLOBALSTAR M041         
1 25650U 99012B   24128.44035311 -.00000106  00000+0 -26967-3 0  9998
2 25650  52.0003 182.9695 0002619 232.4758 127.5841 11.96658969129706
GLOBALSTAR M046         
1 25651U 99012C   24128.71901696 -.00000049  00000+0  43300-3 0  9992
2 25651  52.0048 278.0659 0002833 152.5449 308.2967 12.09388040134607
GLOBALSTAR M037         
1 25652U 99012D   24128.89480421 -.00000049  00000+0  30457-3 0  9999
2 25652  52.0018 338.2936 0002211  32.8937  72.2497 12.62404470160086
